[{"OBJECT_NAME":"GAOFEN-1","OBJECT_ID":"2013-018A","EPOCH":"2026-03-09T23:41:10.925664","MEAN_MOTION":14.76548234,"ECCENTRICITY":0.00163762,"INCLINATION":97.917,"RA_OF_ASC_NODE":143.0376,"ARG_OF_PERICENTER":223.3024,"MEAN_ANOMALY":136.69,"EPHEMERIS_TYPE":0,"CLASSIFICATION_TYPE":"U","NORAD_CAT_ID":39150,"ELEMENT_SET_NO":999,"REV_AT_EPOCH":69360,"BSTAR":0.00016125455,"MEAN_MOTION_DOT":1.076e-5,"MEAN_MOTION_DDOT":0},{"OBJECT_NAME":"KUIPER-00124","OBJECT_ID":"2025-228G","EPOCH":"2026-03-09T23:18:00.946656","MEAN_MOTION":14.79934755,"ECCENTRICITY":6.638e-5,"INCLINATION":51.8999,"RA_OF_ASC_NODE":354.3347,"ARG_OF_PERICENTER":93.5006,"MEAN_ANOMALY":266.6032,"EPHEMERIS_TYPE":0,"CLASSIFICATION_TYPE":"U","NORAD_CAT_ID":65953,"ELEMENT_SET_NO":999,"REV_AT_EPOCH":2334,"BSTAR":0.00014307082,"MEAN_MOTION_DOT":8.7e-6,"MEAN_MOTION_DDOT":0}]
